{"type": "FeatureCollection", "features": [ {"type": "Feature", "properties": {"norad_id": 43010, "name": "FENGYUN 3D", "group": "weather", "lat": 59.907354525836965, "lon": 148.56634461319766, "alt_km": 820.2981668658849, "timestamp": "2025-12-12T09:49:08.370775+00:00", "meta": {"OBJECT_NAME": "FENGYUN 3D", "OBJECT_ID": "2017-072A", "EPOCH": "2025-12-12T04:11:13.178976", "MEAN_MOTION": 14.19684473, "ECCENTRICITY": 9.14e-05, "INCLINATION": 98.9894, "RA_OF_ASC_NODE": 312.4761, "ARG_OF_PERICENTER": 185.3657, "MEAN_ANOMALY": 174.7509, "EPHEMERIS_TYPE": 0, "CLASSIFICATION_TYPE": "U", "NORAD_CAT_ID": 43010, "ELEMENT_SET_NO": 999, "REV_AT_EPOCH": 41845, "BSTAR": 0.00021261, "MEAN_MOTION_DOT": 4.03e-06, "MEAN_MOTION_DDOT": 0}, "tle": {"line1": "1 43010U 17072A   25346.17445809  .00000403  00000+0  21261-3 0  9994", "line2": "2 43010  98.9894 312.4761 0000914 185.3657 174.7509 14.19684473418452"}}, "geometry": {"type": "Point", "coordinates": [148.56634461319766, 59.907354525836965]}}, {"type": "Feature", "properties": {"norad_id": 43013, "name": "NOAA 20 (JPSS-1)", "group": "weather", "lat": -81.13647939552189, "lon": 4.1038253871775545, "alt_km": 835.8407228202432, "timestamp": "2025-12-12T09:49:08.370788+00:00", "meta": {"OBJECT_NAME": "NOAA 20 (JPSS-1)", "OBJECT_ID": "2017-073A", "EPOCH": "2025-12-12T01:46:41.013120", "MEAN_MOTION": 14.1952546, "ECCENTRICITY": 0.0002163, "INCLINATION": 98.7598, "RA_OF_ASC_NODE": 282.3781, "ARG_OF_PERICENTER": 88.0777, "MEAN_ANOMALY": 272.0647, "EPHEMERIS_TYPE": 0, "CLASSIFICATION_TYPE": "U", "NORAD_CAT_ID": 43013, "ELEMENT_SET_NO": 999, "REV_AT_EPOCH": 41792, "BSTAR": 0.00010362, "MEAN_MOTION_DOT": 1.74e-06, "MEAN_MOTION_DDOT": 0}, "tle": {"line1": "1 43013U 17073A   25346.07408580  .00000174  00000+0  10362-3 0  9997", "line2": "2 43013  98.7598 282.3781 0002163  88.0777 272.0647 14.19525460417927"}}, "geometry": {"type": "Point", "coordinates": [4.1038253871775545, -81.13647939552189]}}, {"type": "Feature", "properties": {"norad_id": 43226, "name": "GOES 17", "group": "weather", "lat": 0.35725854308878513, "lon": 139.1149690009129, "alt_km": 35796.29547585413, "timestamp": "2025-12-12T09:49:08.370801+00:00", "meta": {"OBJECT_NAME": "GOES 17", "OBJECT_ID": "2018-022A", "EPOCH": "2025-12-11T23:21:28.018944", "MEAN_MOTION": 1.00271668, "ECCENTRICITY": 0.0003289, "INCLINATION": 0.4581, "RA_OF_ASC_NODE": 89.1115, "ARG_OF_PERICENTER": 187.3128, "MEAN_ANOMALY": 65.3748, "EPHEMERIS_TYPE": 0, "CLASSIFICATION_TYPE": "U", "NORAD_CAT_ID": 43226, "ELEMENT_SET_NO": 999, "REV_AT_EPOCH": 2854, "BSTAR": 0, "MEAN_MOTION_DOT": -1.74e-06, "MEAN_MOTION_DDOT": 0}, "tle": {"line1": "1 43226U 18022A   25345.97324096 -.00000174  00000+0  00000+0 0  9990", "line2": "2 43226   0.4581  89.1115 0003289 187.3128  65.3748  1.00271668 28547"}}, "geometry": {"type": "Point", "coordinates": [139.1149690009129, 0.35725854308878513]}}, {"type": "Feature", "properties": {"norad_id": 43491, "name": "FENGYUN 2H", "group": "weather", "lat": -1.8658906094341967, "lon": -52.00183786502719, "alt_km": 35780.50197322999, "timestamp": "2025-12-12T09:49:08.370821+00:00", "meta": {"OBJECT_NAME": "FENGYUN 2H", "OBJECT_ID": "2018-050A", "EPOCH": "2025-12-12T01:52:23.750688", "MEAN_MOTION": 1.00271159, "ECCENTRICITY": 0.000287, "INCLINATION": 2.5495, "RA_OF_ASC_NODE": 81.3354, "ARG_OF_PERICENTER": 166.252, "MEAN_ANOMALY": 300.9008, "EPHEMERIS_TYPE": 0, "CLASSIFICATION_TYPE": "U", "NORAD_CAT_ID": 43491, "ELEMENT_SET_NO": 999, "REV_AT_EPOCH": 2756, "BSTAR": 0, "MEAN_MOTION_DOT": -1.21e-06, "MEAN_MOTION_DDOT": 0}, "tle": {"line1": "1 43491U 18050A   25346.07805267 -.00000121  00000+0  00000+0 0  9993", "line2": "2 43491   2.5495  81.3354 0002870 166.2520 300.9008  1.00271159 27567"}}, "geometry": {"type": "Point", "coordinates": [-52.00183786502719, -1.8658906094341967]}}, {"type": "Feature", "properties": {"norad_id": 43689, "name": "METOP-C", "group": "weather", "lat": 49.16546598775175, "lon": 33.98689209050701, "alt_km": 814.9543561334758, "timestamp": "2025-12-12T09:49:08.370834+00:00", "meta": {"OBJECT_NAME": "METOP-C", "OBJECT_ID": "2018-087A", "EPOCH": "2025-12-12T04:31:00.917184", "MEAN_MOTION": 14.21484166, "ECCENTRICITY": 0.0001262, "INCLINATION": 98.6932, "RA_OF_ASC_NODE": 43.9664, "ARG_OF_PERICENTER": 39.5238, "MEAN_ANOMALY": 320.6031, "EPHEMERIS_TYPE": 0, "CLASSIFICATION_TYPE": "U", "NORAD_CAT_ID": 43689, "ELEMENT_SET_NO": 999, "REV_AT_EPOCH": 36826, "BSTAR": 0.00016326, "MEAN_MOTION_DOT": 3.13e-06, "MEAN_MOTION_DDOT": 0}, "tle": {"line1": "1 43689U 18087A   25346.18820506  .00000313  00000+0  16326-3 0  9991", "line2": "2 43689  98.6932  43.9664 0001262  39.5238 320.6031 14.21484166368269"}}, "geometry": {"type": "Point", "coordinates": [33.98689209050701, 49.16546598775175]}}, {"type": "Feature", "properties": {"norad_id": 43823, "name": "GEO-KOMPSAT-2A", "group": "weather", "lat": -0.021738641638405092, "lon": -3.10430352311809, "alt_km": 35786.795875076234, "timestamp": "2025-12-12T09:49:08.370847+00:00", "meta": {"OBJECT_NAME": "GEO-KOMPSAT-2A", "OBJECT_ID": "2018-100A", "EPOCH": "2025-12-12T00:23:29.578848", "MEAN_MOTION": 1.00274151, "ECCENTRICITY": 4.24e-05, "INCLINATION": 0.043, "RA_OF_ASC_NODE": 144.5078, "ARG_OF_PERICENTER": 350.0499, "MEAN_ANOMALY": 80.5448, "EPHEMERIS_TYPE": 0, "CLASSIFICATION_TYPE": "U", "NORAD_CAT_ID": 43823, "ELEMENT_SET_NO": 999, "REV_AT_EPOCH": 2575, "BSTAR": 0, "MEAN_MOTION_DOT": -3.34e-06, "MEAN_MOTION_DDOT": 0}, "tle": {"line1": "1 43823U 18100A   25346.01631457 -.00000334  00000+0  00000+0 0  9996", "line2": "2 43823   0.0430 144.5078 0000424 350.0499  80.5448  1.00274151 25757"}}, "geometry": {"type": "Point", "coordinates": [-3.10430352311809, -0.021738641638405092]}}, {"type": "Feature", "properties": {"norad_id": 44387, "name": "METEOR-M2 2", "group": "weather", "lat": 58.074366422724346, "lon": 160.69519312303785, "alt_km": 804.4601658807478, "timestamp": "2025-12-12T09:49:08.370859+00:00", "meta": {"OBJECT_NAME": "METEOR-M2 2", "OBJECT_ID": "2019-038A", "EPOCH": "2025-12-12T04:11:46.076640", "MEAN_MOTION": 14.24290481, "ECCENTRICITY": 0.0001218, "INCLINATION": 98.8975, "RA_OF_ASC_NODE": 325.8965, "ARG_OF_PERICENTER": 148.3756, "MEAN_ANOMALY": 211.7496, "EPHEMERIS_TYPE": 0, "CLASSIFICATION_TYPE": "U", "NORAD_CAT_ID": 44387, "ELEMENT_SET_NO": 999, "REV_AT_EPOCH": 33467, "BSTAR": 5.6017e-05, "MEAN_MOTION_DOT": 8.4e-07, "MEAN_MOTION_DDOT": 0}, "tle": {"line1": "1 44387U 19038A   25346.17483885  .00000084  00000+0  56017-4 0  9995", "line2": "2 44387  98.8975 325.8965 0001218 148.3756 211.7496 14.24290481334676"}}, "geometry": {"type": "Point", "coordinates": [160.69519312303785, 58.074366422724346]}}, {"type": "Feature", "properties": {"norad_id": 47719, "name": "ARKTIKA-M 1", "group": "weather", "lat": 57.89432862415807, "lon": -149.59021151455843, "alt_km": 33549.48169053415, "timestamp": "2025-12-12T09:49:08.370874+00:00", "meta": {"OBJECT_NAME": "ARKTIKA-M 1", "OBJECT_ID": "2021-016A", "EPOCH": "2025-12-09T14:03:23.859648", "MEAN_MOTION": 2.00631311, "ECCENTRICITY": 0.7202538, "INCLINATION": 63.1769, "RA_OF_ASC_NODE": 84.4506, "ARG_OF_PERICENTER": 269.1116, "MEAN_ANOMALY": 15.6235, "EPHEMERIS_TYPE": 0, "CLASSIFICATION_TYPE": "U", "NORAD_CAT_ID": 47719, "ELEMENT_SET_NO": 999, "REV_AT_EPOCH": 3498, "BSTAR": 0, "MEAN_MOTION_DOT": -6.1e-07, "MEAN_MOTION_DDOT": 0}, "tle": {"line1": "1 47719U 21016A   25343.58569282 -.00000061  00000+0  00000+0 0  9996", "line2": "2 47719  63.1769  84.4506 7202538 269.1116  15.6235  2.00631311 34985"}}, "geometry": {"type": "Point", "coordinates": [-149.59021151455843, 57.89432862415807]}}, {"type": "Feature", "properties": {"norad_id": 49008, "name": "FENGYUN 3E", "group": "weather", "lat": 80.05867182288127, "lon": -74.52757845353493, "alt_km": 818.7517202948911, "timestamp": "2025-12-12T09:49:08.370887+00:00", "meta": {"OBJECT_NAME": "FENGYUN 3E", "OBJECT_ID": "2021-062A", "EPOCH": "2025-12-12T06:02:11.118912", "MEAN_MOTION": 14.19879899, "ECCENTRICITY": 5.72e-05, "INCLINATION": 98.7479, "RA_OF_ASC_NODE": 346.7782, "ARG_OF_PERICENTER": 271.7514, "MEAN_ANOMALY": 88.3597, "EPHEMERIS_TYPE": 0, "CLASSIFICATION_TYPE": "U", "NORAD_CAT_ID": 49008, "ELEMENT_SET_NO": 999, "REV_AT_EPOCH": 23005, "BSTAR": 2.6545e-05, "MEAN_MOTION_DOT": 1.2e-07, "MEAN_MOTION_DDOT": 0}, "tle": {"line1": "1 49008U 21062A   25346.25151758  .00000012  00000+0  26545-4 0  9994", "line2": "2 49008  98.7479 346.7782 0000572 271.7514  88.3597 14.19879899230050"}}, "geometry": {"type": "Point", "coordinates": [-74.52757845353493, 80.05867182288127]}}, {"type": "Feature", "properties": {"norad_id": 51850, "name": "GOES 18", "group": "weather", "lat": -0.0017153048247974339, "lon": 91.64125804519045, "alt_km": 35788.06257927066, "timestamp": "2025-12-12T09:49:08.370900+00:00", "meta": {"OBJECT_NAME": "GOES 18", "OBJECT_ID": "2022-021A", "EPOCH": "2025-12-12T04:10:38.587008", "MEAN_MOTION": 1.00272445, "ECCENTRICITY": 6.84e-05, "INCLINATION": 0.0029, "RA_OF_ASC_NODE": 82.1542, "ARG_OF_PERICENTER": 230.2929, "MEAN_ANOMALY": 54.3383, "EPHEMERIS_TYPE": 0, "CLASSIFICATION_TYPE": "U", "NORAD_CAT_ID": 51850, "ELEMENT_SET_NO": 999, "REV_AT_EPOCH": 471, "BSTAR": 0, "MEAN_MOTION_DOT": 1.06e-06, "MEAN_MOTION_DDOT": 0}, "tle": {"line1": "1 51850U 22021A   25346.17405772  .00000106  00000+0  00000+0 0  9994", "line2": "2 51850   0.0029  82.1542 0000684 230.2929  54.3383  1.00272445  4712"}}, "geometry": {"type": "Point", "coordinates": [91.64125804519045, -0.0017153048247974339]}}]}